ONEWEB-0448             
1 51641U 22012V   25342.28191823 -.00000704  00000+0 -20537-2 0  9995
2 51641  87.8801  74.3466 0001692 104.9728 255.1587 13.10373024184291
ONEWEB-0449             
1 51642U 22012W   25342.28689337 -.00000471  00000+0 -13845-2 0  9993
2 51642  87.8815  74.3179 0001745 120.4353 239.6947 13.10372699184300
ONEWEB-0451             
1 51643U 22012X   25342.22936583  .00000083  00000+0  18111-3 0  9995
2 51643  87.9121  43.8012 0001742 104.6926 255.4399 13.17650218188513
ONEWEB-0452             
1 51644U 22012Y   25342.22768675  .00000092  00000+0  20331-3 0  9998
2 51644  87.9111  43.8567 0001978 107.8692 252.2655 13.17649171188521
ONEWEB-0456             
1 51646U 22012AA  25342.29685544 -.00000470  00000+0 -13832-2 0  9999
2 51646  87.8822  74.2850 0001703  98.7031 261.4289 13.10375323184344
ONEWEB-0457             
1 51647U 22012AB  25342.27362394 -.00000155  00000+0 -48098-3 0  9996
2 51647  87.8800  74.3363 0001211 115.4903 244.6350 13.10375639184342
ONEWEB-0458             
1 51648U 22012AC  25342.29519510 -.00000565  00000+0 -16562-2 0  9998
2 51648  87.8816  74.3060 0001727 109.5357 250.5957 13.10374456184304
ONEWEB-0461             
1 51649U 22012AD  25342.24962548  .00000117  00000+0  26740-3 0  9998
2 51649  87.9123  43.8120 0001626  99.6592 260.4724 13.17649819188742
ONEWEB-0463             
1 51650U 22012AE  25342.23106329  .00000110  00000+0  24985-3 0  9998
2 51650  87.9101  43.8599 0001756 102.8293 257.3035 13.17648726188521
ONEWEB-0464             
1 51651U 22012AF  25342.29187182 -.00000520  00000+0 -15257-2 0  9999
2 51651  87.8806  74.3431 0001856  97.6273 262.5065 13.10373423184324
ONEWEB-0468             
1 51652U 22012AG  25342.29851344 -.00000507  00000+0 -14888-2 0  9992
2 51652  87.8810  74.3343 0001859 103.8486 256.2848 13.10374673184306
ONEWEB-0473             
1 51653U 22012AH  25342.28357653 -.00000499  00000+0 -14661-2 0  9995
2 51653  87.8804  74.3405 0001757 106.3792 253.7529 13.10371576184301
ONEWEB-0474             
1 51654U 22012AJ  25342.27528269 -.00000206  00000+0 -62660-3 0  9997
2 51654  87.8811  74.3082 0001920 101.5249 258.6094 13.10370271184297
ONEWEB-0475             
1 51655U 22012AK  25342.24287283  .00000092  00000+0  20442-3 0  9996
2 51655  87.9110  43.8464 0002464 104.0645 256.0761 13.17649052188546
ONEWEB-0490             
1 54113U 22138A   25342.07626767  .00000015  00000+0  58740-5 0  9991
2 54113  87.9203 342.9828 0001979  85.9564 274.1795 13.19725195151627
ONEWEB-0492             
1 54114U 22138B   25342.25316929 -.00000018  00000+0 -77410-4 0  9997
2 54114  87.9196 342.9632 0001854  81.8615 278.2728 13.19725164151656
