[{"OBJECT_NAME":"ONEWEB-0448","OBJECT_ID":"2022-012V","EPOCH":"2025-12-08T06:45:57.735072","MEAN_MOTION":13.10373024,"ECCENTRICITY":0.00016926,"INCLINATION":87.8801,"RA_OF_ASC_NODE":74.3466,"ARG_OF_PERICENTER":104.9728,"MEAN_ANOMALY":255.1587,"EPHEMERIS_TYPE":0,"CLASSIFICATION_TYPE":"U","NORAD_CAT_ID":51641,"ELEMENT_SET_NO":999,"REV_AT_EPOCH":18429,"BSTAR":-0.0020537433,"MEAN_MOTION_DOT":-7.04e-6,"MEAN_MOTION_DDOT":0},{"OBJECT_NAME":"ONEWEB-0449","OBJECT_ID":"2022-012W","EPOCH":"2025-12-08T06:53:07.587168","MEAN_MOTION":13.10372699,"ECCENTRICITY":0.00017454,"INCLINATION":87.8815,"RA_OF_ASC_NODE":74.3179,"ARG_OF_PERICENTER":120.4353,"MEAN_ANOMALY":239.6947,"EPHEMERIS_TYPE":0,"CLASSIFICATION_TYPE":"U","NORAD_CAT_ID":51642,"ELEMENT_SET_NO":999,"REV_AT_EPOCH":18430,"BSTAR":-0.0013845187,"MEAN_MOTION_DOT":-4.71e-6,"MEAN_MOTION_DDOT":0},{"OBJECT_NAME":"ONEWEB-0451","OBJECT_ID":"2022-012X","EPOCH":"2025-12-08T05:30:17.207712","MEAN_MOTION":13.17650218,"ECCENTRICITY":0.00017424,"INCLINATION":87.9121,"RA_OF_ASC_NODE":43.8012,"ARG_OF_PERICENTER":104.6926,"MEAN_ANOMALY":255.4399,"EPHEMERIS_TYPE":0,"CLASSIFICATION_TYPE":"U","NORAD_CAT_ID":51643,"ELEMENT_SET_NO":999,"REV_AT_EPOCH":18851,"BSTAR":0.00018111328,"MEAN_MOTION_DOT":8.3e-7,"MEAN_MOTION_DDOT":0},{"OBJECT_NAME":"ONEWEB-0452","OBJECT_ID":"2022-012Y","EPOCH":"2025-12-08T05:27:52.135200","MEAN_MOTION":13.17649171,"ECCENTRICITY":0.00019785,"INCLINATION":87.9111,"RA_OF_ASC_NODE":43.8567,"ARG_OF_PERICENTER":107.8692,"MEAN_ANOMALY":252.2655,"EPHEMERIS_TYPE":0,"CLASSIFICATION_TYPE":"U","NORAD_CAT_ID":51644,"ELEMENT_SET_NO":999,"REV_AT_EPOCH":18852,"BSTAR":0.00020330721,"MEAN_MOTION_DOT":9.2e-7,"MEAN_MOTION_DDOT":0},{"OBJECT_NAME":"ONEWEB-0456","OBJECT_ID":"2022-012AA","EPOCH":"2025-12-08T07:07:28.310016","MEAN_MOTION":13.10375323,"ECCENTRICITY":0.00017037,"INCLINATION":87.8822,"RA_OF_ASC_NODE":74.285,"ARG_OF_PERICENTER":98.7031,"MEAN_ANOMALY":261.4289,"EPHEMERIS_TYPE":0,"CLASSIFICATION_TYPE":"U","NORAD_CAT_ID":51646,"ELEMENT_SET_NO":999,"REV_AT_EPOCH":18434,"BSTAR":-0.0013831817,"MEAN_MOTION_DOT":-4.7e-6,"MEAN_MOTION_DDOT":0},{"OBJECT_NAME":"ONEWEB-0457","OBJECT_ID":"2022-012AB","EPOCH":"2025-12-08T06:34:01.108416","MEAN_MOTION":13.10375639,"ECCENTRICITY":0.00012115,"INCLINATION":87.88,"RA_OF_ASC_NODE":74.3363,"ARG_OF_PERICENTER":115.4903,"MEAN_ANOMALY":244.635,"EPHEMERIS_TYPE":0,"CLASSIFICATION_TYPE":"U","NORAD_CAT_ID":51647,"ELEMENT_SET_NO":999,"REV_AT_EPOCH":18434,"BSTAR":-0.00048097901,"MEAN_MOTION_DOT":-1.55e-6,"MEAN_MOTION_DDOT":0},{"OBJECT_NAME":"ONEWEB-0458","OBJECT_ID":"2022-012AC","EPOCH":"2025-12-08T07:05:04.856640","MEAN_MOTION":13.10374456,"ECCENTRICITY":0.00017274,"INCLINATION":87.8816,"RA_OF_ASC_NODE":74.306,"ARG_OF_PERICENTER":109.5357,"MEAN_ANOMALY":250.5957,"EPHEMERIS_TYPE":0,"CLASSIFICATION_TYPE":"U","NORAD_CAT_ID":51648,"ELEMENT_SET_NO":999,"REV_AT_EPOCH":18430,"BSTAR":-0.0016561649,"MEAN_MOTION_DOT":-5.65e-6,"MEAN_MOTION_DDOT":0},{"OBJECT_NAME":"ONEWEB-0461","OBJECT_ID":"2022-012AD","EPOCH":"2025-12-08T05:59:27.641472","MEAN_MOTION":13.17649819,"ECCENTRICITY":0.00016268,"INCLINATION":87.9123,"RA_OF_ASC_NODE":43.812,"ARG_OF_PERICENTER":99.6592,"MEAN_ANOMALY":260.4724,"EPHEMERIS_TYPE":0,"CLASSIFICATION_TYPE":"U","NORAD_CAT_ID":51649,"ELEMENT_SET_NO":999,"REV_AT_EPOCH":18874,"BSTAR":0.0002674042,"MEAN_MOTION_DOT":1.17e-6,"MEAN_MOTION_DDOT":0},{"OBJECT_NAME":"ONEWEB-0463","OBJECT_ID":"2022-012AE","EPOCH":"2025-12-08T05:32:43.868256","MEAN_MOTION":13.17648726,"ECCENTRICITY":0.00017566,"INCLINATION":87.9101,"RA_OF_ASC_NODE":43.8599,"ARG_OF_PERICENTER":102.8293,"MEAN_ANOMALY":257.3035,"EPHEMERIS_TYPE":0,"CLASSIFICATION_TYPE":"U","NORAD_CAT_ID":51650,"ELEMENT_SET_NO":999,"REV_AT_EPOCH":18852,"BSTAR":0.0002498506,"MEAN_MOTION_DOT":1.1e-6,"MEAN_MOTION_DDOT":0},{"OBJECT_NAME":"ONEWEB-0464","OBJECT_ID":"2022-012AF","EPOCH":"2025-12-08T07:00:17.725248","MEAN_MOTION":13.10373423,"ECCENTRICITY":0.0001856,"INCLINATION":87.8806,"RA_OF_ASC_NODE":74.3431,"ARG_OF_PERICENTER":97.6273,"MEAN_ANOMALY":262.5065,"EPHEMERIS_TYPE":0,"CLASSIFICATION_TYPE":"U","NORAD_CAT_ID":51651,"ELEMENT_SET_NO":999,"REV_AT_EPOCH":18432,"BSTAR":-0.0015257443,"MEAN_MOTION_DOT":-5.2e-6,"MEAN_MOTION_DDOT":0},{"OBJECT_NAME":"ONEWEB-0468","OBJECT_ID":"2022-012AG","EPOCH":"2025-12-08T07:09:51.561216","MEAN_MOTION":13.10374673,"ECCENTRICITY":0.00018594,"INCLINATION":87.881,"RA_OF_ASC_NODE":74.3343,"ARG_OF_PERICENTER":103.8486,"MEAN_ANOMALY":256.2848,"EPHEMERIS_TYPE":0,"CLASSIFICATION_TYPE":"U","NORAD_CAT_ID":51652,"ELEMENT_SET_NO":999,"REV_AT_EPOCH":18430,"BSTAR":-0.0014887906,"MEAN_MOTION_DOT":-5.07e-6,"MEAN_MOTION_DDOT":0},{"OBJECT_NAME":"ONEWEB-0473","OBJECT_ID":"2022-012AH","EPOCH":"2025-12-08T06:48:21.012192","MEAN_MOTION":13.10371576,"ECCENTRICITY":0.00017578,"INCLINATION":87.8804,"RA_OF_ASC_NODE":74.3405,"ARG_OF_PERICENTER":106.3792,"MEAN_ANOMALY":253.7529,"EPHEMERIS_TYPE":0,"CLASSIFICATION_TYPE":"U","NORAD_CAT_ID":51653,"ELEMENT_SET_NO":999,"REV_AT_EPOCH":18430,"BSTAR":-0.0014660592,"MEAN_MOTION_DOT":-4.99e-6,"MEAN_MOTION_DDOT":0},{"OBJECT_NAME":"ONEWEB-0474","OBJECT_ID":"2022-012AJ","EPOCH":"2025-12-08T06:36:24.424416","MEAN_MOTION":13.10370271,"ECCENTRICITY":0.00019206,"INCLINATION":87.8811,"RA_OF_ASC_NODE":74.3082,"ARG_OF_PERICENTER":101.5249,"MEAN_ANOMALY":258.6094,"EPHEMERIS_TYPE":0,"CLASSIFICATION_TYPE":"U","NORAD_CAT_ID":51654,"ELEMENT_SET_NO":999,"REV_AT_EPOCH":18429,"BSTAR":-0.00062660173,"MEAN_MOTION_DOT":-2.06e-6,"MEAN_MOTION_DDOT":0},{"OBJECT_NAME":"ONEWEB-0475","OBJECT_ID":"2022-012AK","EPOCH":"2025-12-08T05:49:44.212512","MEAN_MOTION":13.17649052,"ECCENTRICITY":0.00024642,"INCLINATION":87.911,"RA_OF_ASC_NODE":43.8464,"ARG_OF_PERICENTER":104.0645,"MEAN_ANOMALY":256.0761,"EPHEMERIS_TYPE":0,"CLASSIFICATION_TYPE":"U","NORAD_CAT_ID":51655,"ELEMENT_SET_NO":999,"REV_AT_EPOCH":18854,"BSTAR":0.00020442497,"MEAN_MOTION_DOT":9.2e-7,"MEAN_MOTION_DDOT":0},{"OBJECT_NAME":"ONEWEB-0490","OBJECT_ID":"2022-138A","EPOCH":"2025-12-08T01:49:49.526688","MEAN_MOTION":13.19725195,"ECCENTRICITY":0.00019795,"INCLINATION":87.9203,"RA_OF_ASC_NODE":342.9828,"ARG_OF_PERICENTER":85.9564,"MEAN_ANOMALY":274.1795,"EPHEMERIS_TYPE":0,"CLASSIFICATION_TYPE":"U","NORAD_CAT_ID":54113,"ELEMENT_SET_NO":999,"REV_AT_EPOCH":15162,"BSTAR":5.873953e-6,"MEAN_MOTION_DOT":1.5e-7,"MEAN_MOTION_DDOT":0},{"OBJECT_NAME":"ONEWEB-0492","OBJECT_ID":"2022-138B","EPOCH":"2025-12-08T06:04:33.826656","MEAN_MOTION":13.19725164,"ECCENTRICITY":0.00018546,"INCLINATION":87.9196,"RA_OF_ASC_NODE":342.9632,"ARG_OF_PERICENTER":81.8615,"MEAN_ANOMALY":278.2728,"EPHEMERIS_TYPE":0,"CLASSIFICATION_TYPE":"U","NORAD_CAT_ID":54114,"ELEMENT_SET_NO":999,"REV_AT_EPOCH":15165,"BSTAR":-7.7410143e-5,"MEAN_MOTION_DOT":-1.8e-7,"MEAN_MOTION_DDOT":0}]
